NORAD_CAT_ID,OBJECT_NAME,OBJECT_TYPE,EPOCH,MEAN_MOTION,ECCENTRICITY,INCLINATION,RA_OF_ASC_NODE,ARG_OF_PERICENTER,MEAN_ANOMALY,BSTAR,MEAN_MOTION_DOT,MEAN_MOTION_DDOT,TLE_LINE0,TLE_LINE1,TLE_LINE2,SEMIMAJOR_AXIS,PERIOD,APOGEE,PERIGEE,DECAYED
52692.0,STARLINK-3993,PAYLOAD,2024-04-29 06:30:47,15.08843577,0.0001318,53.2178,313.8784,80.2841,279.83,0.00015022,2.104e-05,0.0,0 STARLINK-3993,1 52692U 22053AN  24120.27138462  .00002104  00000-0  15022-3 0  9998,2 52692  53.2178 313.8784 0001318  80.2841 279.8300 15.08843577108581,6917.869,95.437,540.646,538.823,0.0
52692.0,STARLINK-3993,PAYLOAD,2024-04-29 19:13:53,15.08837117,0.0001277,53.2185,311.5,86.6563,273.4575,0.0002297,3.369e-05,0.0,0 STARLINK-3993,1 52692U 22053AN  24120.80131033  .00003369  00000-0  22970-3 0  9998,2 52692  53.2185 311.5000 0001277  86.6563 273.4575 15.08837117108666,6917.889,95.438,540.638,538.871,0.0
52692.0,STARLINK-3993,PAYLOAD,2024-04-30 19:04:40,15.0884289,0.0001362,53.2189,307.0393,88.7241,271.3907,0.00014428,2.009e-05,0.0,0 STARLINK-3993,1 52692U 22053AN  24121.79490844  .00002009  00000-0  14428-3 0  9994,2 52692  53.2189 307.0393 0001362  88.7241 271.3907 15.08842890108419,6917.872,95.437,540.679,538.794,0.0
52692.0,STARLINK-3993,PAYLOAD,2024-04-30 22:15:26,15.08844101,0.0001358,53.2189,306.4447,87.9021,272.2127,0.00015095,2.116e-05,0.0,0 STARLINK-3993,1 52692U 22053AN  24121.92738766  .00002116  00000-0  15095-3 0  9997,2 52692  53.2189 306.4447 0001358  87.9021 272.2127 15.08844101108831,6917.868,95.437,540.672,538.793,0.0
52692.0,STARLINK-3993,PAYLOAD,2024-05-01 12:33:54,15.08845462,0.000132,53.2184,303.7678,86.5271,273.5872,0.00019064,2.748e-05,0.0,0 STARLINK-3993,1 52692U 22053AN  24122.52354551  .00002748  00000-0  19064-3 0  9991,2 52692  53.2184 303.7678 0001320  86.5271 273.5872 15.08845462108925,6917.864,95.437,540.642,538.816,0.0
52692.0,STARLINK-3993,PAYLOAD,2024-05-01 18:55:26,15.08848583,0.0001326,53.2184,302.5782,86.7059,273.4085,0.00020736,3.015e-05,0.0,0 STARLINK-3993,1 52692U 22053AN  24122.78850310  .00003015  00000-0  20736-3 0  9999,2 52692  53.2184 302.5782 0001326  86.7059 273.4085 15.08848583108966,6917.854,95.437,540.636,538.802,0.0
52692.0,STARLINK-3993,PAYLOAD,2024-05-02 04:27:44,15.08856522,0.000134,53.2187,300.7938,86.2859,273.8286,0.00023234,3.413e-05,0.0,0 STARLINK-3993,1 52692U 22053AN  24123.18593617  .00003413  00000-0  23234-3 0  9996,2 52692  53.2187 300.7938 0001340  86.2859 273.8286 15.08856522108623,6917.83,95.437,540.622,538.768,0.0
52692.0,STARLINK-3993,PAYLOAD,2024-05-02 12:24:41,15.08839257,0.000217,53.2183,299.3085,95.1011,265.0229,1.138e-05,-1.07e-06,0.0,0 STARLINK-3993,1 52692U 22053AN  24123.51714540 -.00000107  00000-0  11380-4 0  9991,2 52692  53.2183 299.3085 0002170  95.1011 265.0229 15.08839257108677,6917.883,95.438,541.249,538.246,0.0
52692.0,STARLINK-3993,PAYLOAD,2024-05-02 18:46:14,15.08834371,0.0001393,53.2183,298.1188,89.9406,270.1746,3.0552e-05,1.98e-06,0.0,0 STARLINK-3993,1 52692U 22053AN  24123.78211308  .00000198  00000-0  30552-4 0  9995,2 52692  53.2183 298.1188 0001393  89.9406 270.1746 15.08834371108711,6917.898,95.438,540.726,538.799,0.0
52692.0,STARLINK-3993,PAYLOAD,2024-05-03 04:18:32,15.08847597,0.0001452,53.2183,296.3351,89.6679,270.4479,0.00011011,1.465e-05,0.0,0 STARLINK-3993,1 52692U 22053AN  24124.17954080  .00001465  00000-0  11011-3 0  9996,2 52692  53.2183 296.3351 0001452  89.6679 270.4479 15.08847597108774,6917.857,95.437,540.727,538.718,0.0
52692.0,STARLINK-3993,PAYLOAD,2024-05-03 12:15:29,15.08824736,0.0001547,53.2173,294.8481,96.8187,263.2981,-0.00021598,-3.722e-05,0.0,0 STARLINK-3993,1 52692U 22053AN  24124.51075320 -.00003722  00000-0 -21598-3 0  9996,2 52692  53.2173 294.8481 0001547  96.8187 263.2981 15.08824736108823,6917.927,95.439,540.862,538.722,0.0
52692.0,STARLINK-3993,PAYLOAD,2024-05-03 18:37:01,15.08827764,0.0001797,53.2166,293.6597,100.745,259.3745,-0.00013401,-2.42e-05,0.0,0 STARLINK-3993,1 52692U 22053AN  24124.77571374 -.00002420  00000-0 -13401-3 0  9992,2 52692  53.2166 293.6597 0001797 100.7450 259.3745 15.08827764109262,6917.918,95.438,541.026,538.54,0.0
52692.0,STARLINK-3993,PAYLOAD,2024-05-04 04:09:20,15.08833038,0.0001902,53.217,291.8744,97.3546,262.7663,3.8352e-05,3.22e-06,0.0,0 STARLINK-3993,1 52692U 22053AN  24125.17315403  .00000322  00000-0  38352-4 0  9996,2 52692  53.2170 291.8744 0001902  97.3546 262.7663 15.08833038108926,6917.902,95.438,541.082,538.451,0.0
52692.0,STARLINK-3993,PAYLOAD,2024-05-04 18:27:48,15.08846471,0.000135,53.216,289.1976,93.1977,266.917,0.00041703,6.356e-05,0.0,0 STARLINK-3993,1 52692U 22053AN  24125.76931174  .00006356  00000-0  41703-3 0  9996,2 52692  53.2160 289.1976 0001350  93.1977 266.9170 15.08846471109016,6917.861,95.437,540.66,538.792,0.0
52692.0,STARLINK-3993,PAYLOAD,2024-05-05 10:21:39,15.08856298,0.0002159,53.2158,286.2243,85.3235,274.8004,0.00061189,9.468e-05,0.0,0 STARLINK-3993,1 52692U 22053AN  24126.43171143  .00009468  00000-0  61189-3 0  9990,2 52692  53.2158 286.2243 0002159  85.3235 274.8004 15.08856298109513,6917.831,95.437,541.189,538.202,0.0
52692.0,STARLINK-3993,PAYLOAD,2024-05-05 18:18:35,15.0885425,0.0001309,53.2157,284.7371,87.84,272.2742,0.00065892,0.00010218,0.0,0 STARLINK-3993,1 52692U 22053AN  24126.76290847  .00010218  00000-0  65892-3 0  9999,2 52692  53.2157 284.7371 0001309  87.8400 272.2742 15.08854250109566,6917.837,95.437,540.607,538.796,0.0
52692.0,STARLINK-3993,PAYLOAD,2024-05-06 10:12:26,15.08856971,0.0001314,53.217,281.7643,92.289,267.8252,0.000994,0.00015574,0.0,0 STARLINK-3993,1 52692U 22053AN  24127.42530945  .00015574  00000-0  99400-3 0  9991,2 52692  53.2170 281.7643 0001314  92.2890 267.8252 15.08856971109264,6917.829,95.436,540.603,538.785,0.0
52692.0,STARLINK-3993,PAYLOAD,2024-05-06 14:58:36,15.08848643,0.000145,53.2164,280.8708,81.4117,278.7039,0.00074067,0.00011522,0.0,0 STARLINK-3993,1 52692U 22053AN  24127.62403167  .00011522  00000-0  74067-3 0  9999,2 52692  53.2164 280.8708 0001450  81.4117 278.7039 15.08848643109690,6917.854,95.437,540.722,538.716,0.0
52692.0,STARLINK-3993,PAYLOAD,2024-05-06 19:44:45,15.08850617,0.00013,53.2161,279.9778,96.5981,263.5159,0.00032104,4.827e-05,0.0,0 STARLINK-3993,1 52692U 22053AN  24127.82274828  .00004827  00000-0  32104-3 0  9997,2 52692  53.2161 279.9778 0001300  96.5981 263.5159 15.08850617109322,6917.848,95.437,540.612,538.814,0.0
52692.0,STARLINK-3993,PAYLOAD,2024-05-07 13:14:00,15.08837532,0.0001437,53.2179,276.7056,105.4626,254.6525,0.00014656,2.045e-05,0.0,0 STARLINK-3993,1 52692U 22053AN  24128.55139346  .00002045  00000-0  14656-3 0  9995,2 52692  53.2179 276.7056 0001437 105.4626 254.6525 15.08837532109433,6917.888,95.438,540.747,538.759,0.0
52692.0,STARLINK-3993,PAYLOAD,2024-05-07 14:49:23,15.08835974,0.0001202,53.2171,276.407,101.5078,258.6049,0.00011818,1.593e-05,0.0,0 STARLINK-3993,1 52692U 22053AN  24128.61763403  .00001593  00000-0  11818-3 0  9993,2 52692  53.2171 276.4070 0001202 101.5078 258.6049 15.08835974109844,6917.893,95.438,540.589,538.926,0.0
52692.0,STARLINK-3993,PAYLOAD,2024-05-07 16:24:46,15.08837014,0.0001312,53.2166,276.1108,104.3624,255.7514,4.2488e-05,3.88e-06,0.0,0 STARLINK-3993,1 52692U 22053AN  24128.68387432  .00000388  00000-0  42488-4 0  9993,2 52692  53.2166 276.1108 0001312 104.3624 255.7514 15.08837014109850,6917.89,95.438,540.662,538.847,0.0
52692.0,STARLINK-3993,PAYLOAD,2024-05-08 14:40:10,15.0883928,0.0001333,53.2169,271.9471,90.6252,269.4893,8.8671e-05,1.124e-05,0.0,0 STARLINK-3993,1 52692U 22053AN  24129.61123635  .00001124  00000-0  88671-4 0  9993,2 52692  53.2169 271.9471 0001333  90.6252 269.4893 15.08839280109990,6917.883,95.438,540.67,538.825,0.0
52692.0,STARLINK-3993,PAYLOAD,2024-05-08 16:15:33,15.08839953,0.0001267,53.2166,271.6509,83.1486,276.965,9.9395e-05,1.294e-05,0.0,0 STARLINK-3993,1 52692U 22053AN  24129.67747627  .00001294  00000-0  99395-4 0  9995,2 52692  53.2166 271.6509 0001267  83.1486 276.9650 15.08839953109607,6917.881,95.438,540.622,538.869,0.0
52692.0,STARLINK-3993,PAYLOAD,2024-05-09 14:30:57,15.08843202,0.0001216,53.2165,267.4875,75.0244,285.0882,0.00020472,2.972e-05,0.0,0 STARLINK-3993,1 52692U 22053AN  24130.60483492  .00002972  00000-0  20472-3 0  9990,2 52692  53.2165 267.4875 0001216  75.0244 285.0882 15.08843202110142,6917.871,95.437,540.577,538.894,0.0
52692.0,STARLINK-3993,PAYLOAD,2024-05-09 16:06:20,15.08846558,0.0001182,53.2169,267.1911,74.7705,285.3418,0.00025844,3.828e-05,0.0,0 STARLINK-3993,1 52692U 22053AN  24130.67107330  .00003828  00000-0  25844-3 0  9990,2 52692  53.2169 267.1911 0001182  74.7705 285.3418 15.08846558110150,6917.86,95.437,540.543,538.908,0.0
52692.0,STARLINK-3993,PAYLOAD,2024-05-10 01:38:38,15.08865335,0.0001229,53.2185,265.4097,87.7316,272.3817,0.00042881,6.548e-05,0.0,0 STARLINK-3993,1 52692U 22053AN  24131.06850169  .00006548  00000-0  42881-3 0  9991,2 52692  53.2185 265.4097 0001229  87.7316 272.3817 15.08865335109812,6917.803,95.436,540.518,538.818,0.0
52692.0,STARLINK-3993,PAYLOAD,2024-05-10 12:46:22,15.08826868,0.000117,53.2168,263.3247,80.3348,279.7776,-0.00014694,-2.625e-05,0.0,0 STARLINK-3993,1 52692U 22053AN  24131.53220139 -.00002625  00000-0 -14694-3 0  9996,2 52692  53.2168 263.3247 0001170  80.3348 279.7776 15.08826868109886,6917.921,95.438,540.595,538.976,0.0
52692.0,STARLINK-3993,PAYLOAD,2024-05-10 17:32:31,15.08836865,0.0001468,53.2191,262.4376,105.7589,254.3565,-7.7079e-05,-1.514e-05,0.0,0 STARLINK-3993,1 52692U 22053AN  24131.73091537 -.00001514  00000-0 -77079-4 0  9999,2 52692  53.2191 262.4376 0001468 105.7589 254.3565 15.08836865109911,6917.89,95.438,540.771,538.739,0.0
52692.0,STARLINK-3993,PAYLOAD,2024-05-11 12:37:05,15.0890296,0.0001251,53.2176,258.8685,90.5769,269.5367,0.0010228,0.00016055,0.0,0 STARLINK-3993,1 52692U 22053AN  24132.52575664  .00016055  00000-0  10228-2 0  9990,2 52692  53.2176 258.8685 0001251  90.5769 269.5367 15.08902960110030,6917.688,95.434,540.418,538.688,0.0
